[{"OBJECT_NAME":"STARLINK-4331","OBJECT_ID":"2022-077D","EPOCH":"2026-03-09T22:56:43.694592","MEAN_MOTION":15.05646487,"ECCENTRICITY":0.00018087,"INCLINATION":97.6022,"RA_OF_ASC_NODE":251.581,"ARG_OF_PERICENTER":88.4059,"MEAN_ANOMALY":271.7375,"EPHEMERIS_TYPE":0,"CLASSIFICATION_TYPE":"U","NORAD_CAT_ID":53046,"ELEMENT_SET_NO":999,"REV_AT_EPOCH":20103,"BSTAR":7.98898e-7,"MEAN_MOTION_DOT":-4.9e-7,"MEAN_MOTION_DDOT":0},{"OBJECT_NAME":"PSLV R\/B","OBJECT_ID":"2016-015B","EPOCH":"2026-03-09T18:41:37.106880","MEAN_MOTION":4.6138341,"ECCENTRICITY":0.56336356,"INCLINATION":17.7704,"RA_OF_ASC_NODE":51.3657,"ARG_OF_PERICENTER":176.364,"MEAN_ANOMALY":190.8572,"EPHEMERIS_TYPE":0,"CLASSIFICATION_TYPE":"U","NORAD_CAT_ID":41385,"ELEMENT_SET_NO":999,"REV_AT_EPOCH":15244,"BSTAR":0.00089074322,"MEAN_MOTION_DOT":6.015e-5,"MEAN_MOTION_DDOT":0}]
